{
  "type": "FeatureCollection",
  "features": [
    {
      "type": "Feature",
      "properties": {
        "norad_id": 32376,
        "name": "COSMO-SKYMED 2",
        "group": "resource",
        "lat": -4.6574937355873995,
        "lon": -177.63508583887568,
        "alt_km": 626.0769633841073,
        "timestamp": "2025-12-26T14:28:47.345719+00:00",
        "meta_object_name": "COSMO-SKYMED 2",
        "meta_object_id": "2007-059A",
        "meta_epoch": "2025-12-26T06:23:59.047296",
        "meta_mean_motion": 14.82158914,
        "meta_eccentricity": 0.00012999,
        "meta_inclination": 97.8806,
        "meta_ra_of_asc_node": 181.3869,
        "meta_arg_of_pericenter": 83.285,
        "meta_mean_anomaly": 276.8511,
        "meta_ephemeris_type": 0,
        "meta_classification_type": "U",
        "meta_norad_cat_id": 32376,
        "meta_element_set_no": 999,
        "meta_rev_at_epoch": 97638,
        "meta_bstar": 7.3950201e-05,
        "meta_mean_motion_dot": 5.37e-06,
        "meta_mean_motion_ddot": 0,
        "tle_line1": "1 32376U 07059A   25360.26665564  .00000537  00000+0  73950-4 0  9990",
        "tle_line2": "2 32376  97.8806 181.3869 0001299  83.2850 276.8511 14.82158914976380"
      },
      "geometry": {
        "type": "Point",
        "coordinates": [
          -177.63508583887568,
          -4.6574937355873995
        ]
      }
    },
    {
      "type": "Feature",
      "properties": {
        "norad_id": 32382,
        "name": "RADARSAT-2",
        "group": "resource",
        "lat": -44.46054714683419,
        "lon": 176.47151388763268,
        "alt_km": 799.0832617527067,
        "timestamp": "2025-12-26T14:28:47.345736+00:00",
        "meta_object_name": "RADARSAT-2",
        "meta_object_id": "2007-061A",
        "meta_epoch": "2025-12-26T06:42:49.199904",
        "meta_mean_motion": 14.29986053,
        "meta_eccentricity": 0.00011399,
        "meta_inclination": 98.5799,
        "meta_ra_of_asc_node": 4.6728,
        "meta_arg_of_pericenter": 84.7361,
        "meta_mean_anomaly": 275.3951,
        "meta_ephemeris_type": 0,
        "meta_classification_type": "U",
        "meta_norad_cat_id": 32382,
        "meta_element_set_no": 999,
        "meta_rev_at_epoch": 94124,
        "meta_bstar": 0.00014104138,
        "meta_mean_motion_dot": 3.2e-06,
        "meta_mean_motion_ddot": 0,
        "tle_line1": "1 32382U 07061A   25360.27973611  .00000320  00000+0  14104-3 0  9991",
        "tle_line2": "2 32382  98.5799   4.6728 0001139  84.7361 275.3951 14.29986053941246"
      },
      "geometry": {
        "type": "Point",
        "coordinates": [
          176.47151388763268,
          -44.46054714683419
        ]
      }
    },
    {
      "type": "Feature",
      "properties": {
        "norad_id": 32783,
        "name": "CARTOSAT-2A",
        "group": "resource",
        "lat": -24.6105583795331,
        "lon": 53.58778516368863,
        "alt_km": 630.91015741106,
        "timestamp": "2025-12-26T14:28:47.345748+00:00",
        "meta_object_name": "CARTOSAT-2A",
        "meta_object_id": "2008-021A",
        "meta_epoch": "2025-12-26T06:28:22.677888",
        "meta_mean_motion": 14.78955287,
        "meta_eccentricity": 0.00108872,
        "meta_inclination": 97.7908,
        "meta_ra_of_asc_node": 49.6691,
        "meta_arg_of_pericenter": 319.5079,
        "meta_mean_anomaly": 40.5322,
        "meta_ephemeris_type": 0,
        "meta_classification_type": "U",
        "meta_norad_cat_id": 32783,
        "meta_element_set_no": 999,
        "meta_rev_at_epoch": 95324,
        "meta_bstar": 0.00010078337,
        "meta_mean_motion_dot": 6.94e-06,
        "meta_mean_motion_ddot": 0,
        "tle_line1": "1 32783U 08021A   25360.26970692  .00000694  00000+0  10078-3 0  9998",
        "tle_line2": "2 32783  97.7908  49.6691 0010887 319.5079  40.5322 14.78955287953243"
      },
      "geometry": {
        "type": "Point",
        "coordinates": [
          53.58778516368863,
          -24.6105583795331
        ]
      }
    },
    {
      "type": "Feature",
      "properties": {
        "norad_id": 33320,
        "name": "HUANJING 1A (HJ-1A)",
        "group": "resource",
        "lat": 62.29597140077276,
        "lon": -26.517716170828407,
        "alt_km": 608.583932011743,
        "timestamp": "2025-12-26T14:28:47.345758+00:00",
        "meta_object_name": "HUANJING 1A (HJ-1A)",
        "meta_object_id": "2008-041A",
        "meta_epoch": "2025-12-26T06:06:07.221600",
        "meta_mean_motion": 14.83436168,
        "meta_eccentricity": 0.0019111,
        "meta_inclination": 97.6552,
        "meta_ra_of_asc_node": 347.9889,
        "meta_arg_of_pericenter": 351.1471,
        "meta_mean_anomaly": 8.9404,
        "meta_ephemeris_type": 0,
        "meta_classification_type": "U",
        "meta_norad_cat_id": 33320,
        "meta_element_set_no": 999,
        "meta_rev_at_epoch": 93276,
        "meta_bstar": 0.00024534341,
        "meta_mean_motion_dot": 1.97e-05,
        "meta_mean_motion_ddot": 0,
        "tle_line1": "1 33320U 08041A   25360.25425025  .00001970  00000+0  24534-3 0  9992",
        "tle_line2": "2 33320  97.6552 347.9889 0019111 351.1471   8.9404 14.83436168932766"
      },
      "geometry": {
        "type": "Point",
        "coordinates": [
          -26.517716170828407,
          62.29597140077276
        ]
      }
    },
    {
      "type": "Feature",
      "properties": {
        "norad_id": 33321,
        "name": "HUANJING 1B (HJ-1B)",
        "group": "resource",
        "lat": -73.4109287315085,
        "lon": 145.1991121633843,
        "alt_km": 646.7465271551828,
        "timestamp": "2025-12-26T14:28:47.345769+00:00",
        "meta_object_name": "HUANJING 1B (HJ-1B)",
        "meta_object_id": "2008-041B",
        "meta_epoch": "2025-12-26T06:51:14.700384",
        "meta_mean_motion": 14.8285969,
        "meta_eccentricity": 0.00376757,
        "meta_inclination": 97.6411,
        "meta_ra_of_asc_node": 351.6804,
        "meta_arg_of_pericenter": 32.8549,
        "meta_mean_anomaly": 327.4997,
        "meta_ephemeris_type": 0,
        "meta_classification_type": "U",
        "meta_norad_cat_id": 33321,
        "meta_element_set_no": 999,
        "meta_rev_at_epoch": 93278,
        "meta_bstar": 0.00028283849,
        "meta_mean_motion_dot": 2.267e-05,
        "meta_mean_motion_ddot": 0,
        "tle_line1": "1 33321U 08041B   25360.28558681  .00002267  00000+0  28284-3 0  9997",
        "tle_line2": "2 33321  97.6411 351.6804 0037675  32.8549 327.4997 14.82859690932780"
      },
      "geometry": {
        "type": "Point",
        "coordinates": [
          145.1991121633843,
          -73.4109287315085
        ]
      }
    },
    {
      "type": "Feature",
      "properties": {
        "norad_id": 33331,
        "name": "GEOEYE 1",
        "group": "resource",
        "lat": 58.57409229425515,
        "lon": 58.189349025408205,
        "alt_km": 674.4104102561505,
        "timestamp": "2025-12-26T14:28:47.345781+00:00",
        "meta_object_name": "GEOEYE 1",
        "meta_object_id": "2008-042A",
        "meta_epoch": "2025-12-26T06:00:40.353120",
        "meta_mean_motion": 14.6471812,
        "meta_eccentricity": 0.0003054,
        "meta_inclination": 98.1236,
        "meta_ra_of_asc_node": 71.3599,
        "meta_arg_of_pericenter": 226.5737,
        "meta_mean_anomaly": 133.5213,
        "meta_ephemeris_type": 0,
        "meta_classification_type": "U",
        "meta_norad_cat_id": 33331,
        "meta_element_set_no": 999,
        "meta_rev_at_epoch": 92483,
        "meta_bstar": 0.00012654682,
        "meta_mean_motion_dot": 6.26e-06,
        "meta_mean_motion_ddot": 0,
        "tle_line1": "1 33331U 08042A   25360.25046705  .00000626  00000+0  12655-3 0  9997",
        "tle_line2": "2 33331  98.1236  71.3599 0003054 226.5737 133.5213 14.64718120924830"
      },
      "geometry": {
        "type": "Point",
        "coordinates": [
          58.189349025408205,
          58.57409229425515
        ]
      }
    },
    {
      "type": "Feature",
      "properties": {
        "norad_id": 33396,
        "name": "THEOS",
        "group": "resource",
        "lat": -32.228569876818355,
        "lon": -127.18193932587188,
        "alt_km": 831.4954657238113,
        "timestamp": "2025-12-26T14:28:47.345796+00:00",
        "meta_object_name": "THEOS",
        "meta_object_id": "2008-049A",
        "meta_epoch": "2025-12-26T06:43:05.775744",
        "meta_mean_motion": 14.20100284,
        "meta_eccentricity": 0.0001203,
        "meta_inclination": 98.5844,
        "meta_ra_of_asc_node": 57.9688,
        "meta_arg_of_pericenter": 92.8623,
        "meta_mean_anomaly": 267.2692,
        "meta_ephemeris_type": 0,
        "meta_classification_type": "U",
        "meta_norad_cat_id": 33396,
        "meta_element_set_no": 999,
        "meta_rev_at_epoch": 89342,
        "meta_bstar": 0.0001616864,
        "meta_mean_motion_dot": 3.02e-06,
        "meta_mean_motion_ddot": 0,
        "tle_line1": "1 33396U 08049A   25360.27992796  .00000302  00000+0  16169-3 0  9992",
        "tle_line2": "2 33396  98.5844  57.9688 0001203  92.8623 267.2692 14.20100284893425"
      },
      "geometry": {
        "type": "Point",
        "coordinates": [
          -127.18193932587188,
          -32.228569876818355
        ]
      }
    }
  ]
}